---
title: "CK07N030 2009 01 07.4298 1.220470 0.998894 136.6077 338.2806 178.3758 20150627 6.5 4.0 : C/2007 N3－Venzha Christ個展"
date: 2015-08-07T10:17:34+08:00
draft: false
section: archive
k2_id: 136
alias: "ck07n030-2009-01-07-4298-1-220470-0-998894-136-6077-338-2806-178-3758-20150627-6-5-4-0-c-2007-n3"
image: "/images/k2/items/cache/ck07n030-2009-01-07-4298-1-220470-0-998894-136-6077-338-2806-178-3758-20150627-6-5-4-0-c-2007-n3_XL.jpg"
---

受打開-當代藝術工作站之邀，從事新媒體藝術創作的印尼藝術家Venzha Christ，本身是個天文愛好者，對於蒼穹裡無盡繁星的敬畏以及平行宇宙、外星人存在的信念，構成了這次他在台灣駐地創作交流計畫的主軸線，過去他也曾到訪世界其他地區的天文台了解其運作與個殊研究方向。....

展覽介紹

 受打開-當代藝術工作站之邀，從事新媒體藝術創作的印尼藝術家Venzha Christ，本身是個天文愛好者，對於蒼穹裡無盡繁星的敬畏以及平行宇宙、外星人存在的信念，構成了這次他在台灣駐地創作交流計畫的主軸線，過去他也曾到訪世界其他地區的天文台了解其運作與個殊研究方向。而此次來台，在國立中央大學天文所葉永烜教授的首肯下，他也到訪了央大位於海拔兩千八百多公尺山上的鹿林天文台，並在密集而短暫的一個月裡，Venzha接觸了來自台灣的藝術家以及天文研究者以及印尼的科學家等，透過他們不同層面的貢獻與分享，在這般跨界合作與對話裡，生衍了一場集合性的藝術創作與境遇。

 本展標題為一連串的字母與數字所構成的符碼，這些字串的結構原為天文台利用電腦在進行星空搜索與觀測時，所輸入的標準碼，而這組代碼代表的是鹿林彗星，亦即是台灣發現的第一顆彗星，其係由參與此藝術計畫的鹿林天文台觀測助理林啟生先生於2007年首次拍攝到其蹤跡，因而得名。這顆非週期性彗星，在當時造訪太陽系後，即逐漸遠離，奔向無窮的時空旅程，而人類生命的有限時間裡已無機會在地球上再見其蹤跡。一如人與人間的關係，這般唯一的偶遇或是命定，構築了一種浪漫的想像，但卻也真實而具體。在這次的作品呈現裡，藝術家思索著在天文理論的推設以及知覺有限性下，人類如何拼湊、建構或接觸地球之外的事物?另一方面，透過這個駐地實踐，既凝聚也擴張了由地域與學科領域所交織的網絡，並希冀在這展呈中，等待與更多未知的人們相會。

 

藝術家 ：[Venzha Christ](index.php/zh/artists/item/153-venzha-christ)